P/2011 C2 (Gibbs),e,10.8849,12.1245,160.9302,7.413961,0.0488235,0.26890238,165.9513,04/21.0/2021,2000,g  9.0,4.0
# From MPC 79866
P/2011 FR143 (Lemmon),e,15.9829,190.9510,350.1004,6.858281,0.0548758,0.45076223,203.2667,04/21.0/2021,2000,g 14.0,2.0
# From MPC 82317
P/2011 JB15 (Spacewatch-Boattini),e,19.1471,153.5861,111.0367,7.356492,0.0493967,0.31768711,166.7406,04/21.0/2021,2000,g  9.0,4.0
# From MPEC 2020-AA5
C/2011 KP36 (Spacewatch),e,18.9857,173.2826,180.6961,38.98063,0.0040498,0.87479133,7.2449,04/21.0/2021,2000,g  4.5,4.0
# From MPC 87913
P/2011 N1 (ASH),e,35.7221,77.5965,330.3359,6.249179,0.0630913,0.54395621,205.6170,04/21.0/2021,2000,g 11.5,4.0
# From MPC 75714
P/2011 NO1 (Elenin),e,15.2484,295.7977,263.8027,5.524543,0.0759031,0.77471467,284.0912,04/21.0/2021,2000,g 15.0,4.0
# From MPC 82318
P/2011 P1 (McNaught),e,5.6593,4.2377,348.9250,7.466597,0.0483081,0.32733061,189.6708,04/21.0/2021,2000,g  9.0,4.0
# From MPC 77806
P/2011 Q3 (McNaught),e,6.0572,32.0263,310.9868,4.970318,0.0889463,0.53267400,316.8214,04/21.0/2021,2000,g 13.5,4.0
# From MPC 98558
P/2011 S1 (Gibbs),e,2.6845,218.8842,192.4553,8.585917,0.0391764,0.20047002,95.7799,04/21.0/2021,2000,g  8.0,4.0
# From MPC 79022
P/2011 UA134 (Spacewatch-PANSTARRS),e,10.4414,40.4091,32.4356,5.605779,0.0742592,0.62932197,256.1015,04/21.0/2021,2000,g 17.5,4.0
# From MPC 77406
P/2011 V1 (Boattini),e,7.3761,46.8345,269.2793,3.855357,0.1301989,0.55060040,121.3148,04/21.0/2021,2000,g 15.5,4.0
# From MPC 82718
P/2011 W1 (PANSTARRS),e,3.7186,161.7895,282.7419,4.660877,0.0979496,0.28723264,331.3290,04/21.0/2021,2000,g 11.5,4.0
# From MPC 79342
P/2011 Y2 (Boattini),e,6.3717,309.3665,131.9173,6.239716,0.0632349,0.70939246,210.8293,04/21.0/2021,2000,g 15.0,4.0
# From MPC 94669
P/2012 B1 (PANSTARRS),e,7.6136,36.2081,162.5574,6.528977,0.0590794,0.40944652,167.4042,04/21.0/2021,2000,g  9.0,4.0
# From MPC 78590
P/2012 C3 (PANSTARRS),e,9.0920,135.3677,344.9542,9.748681,0.0323806,0.63011148,359.9758,10/06.0/2011,2000,g 13.0,4.0
# From MPC 84931
P/2012 F2 (PANSTARRS),e,14.7188,227.0420,33.2838,6.329977,0.0618872,0.54242775,181.3339,04/21.0/2021,2000,g 12.0,4.0
# From MPC 79344
P/2012 G1 (PANSTARRS),e,11.6925,282.5440,286.1149,4.172871,0.1156250,0.38072240,359.9500,06/01.0/2012,2000,g 15.0,4.0
# From MPC 80898
P/2012 K3 (Gibbs),e,13.1946,125.8086,172.1788,3.625531,0.1427732,0.42338253,87.4461,04/21.0/2021,2000,g 15.0,4.0
# From MPC 88326
P/2012 NJ (La Sagra),e,84.6635,315.5448,338.3440,8.460837,0.0400483,0.84723544,129.4962,04/21.0/2021,2000,g 14.5,4.0
# From MPC 81470
P/2012 O1 (McNaught),e,7.4317,91.9783,238.2352,3.540566,0.1479432,0.59457976,115.4636,04/21.0/2021,2000,g 17.5,4.0
# From MPC 80899
P/2012 O2 (McNaught),e,24.4859,120.6795,183.4271,3.623799,0.1428756,0.53273227,102.2787,04/21.0/2021,2000,g 17.0,4.0
# From MPC 82720
P/2012 O3 (McNaught),e,16.6157,336.4129,344.7277,4.573644,0.1007652,0.64699412,319.3154,04/21.0/2021,2000,g 16.5,4.0
# From MPC 82720
P/2012 S2 (La Sagra),e,8.6861,51.1898,312.4841,4.413520,0.1062983,0.69129728,339.4037,04/21.0/2021,2000,g 17.0,4.0
# From MPC 82320
P/2012 T2 (PANSTARRS),e,12.5581,73.7241,310.4447,5.735674,0.0717509,0.16117241,209.6686,04/21.0/2021,2000,g 10.0,4.0
# From MPC 80900
P/2012 T3 (PANSTARRS),e,9.5677,114.4054,195.4660,6.151793,0.0645954,0.61725211,211.5582,04/21.0/2021,2000,g 15.0,4.0
# From MPC 87914
P/2012 TK8 (Tenagra),e,6.3402,288.9648,128.0050,4.127199,0.1175496,0.27421237,337.8965,04/21.0/2021,2000,g 13.0,4.0
# From MPC 82720
P/2012 U2 (PANSTARRS),e,10.7531,185.2909,228.2792,7.140083,0.0516594,0.49828722,159.3766,04/21.0/2021,2000,g 12.5,4.0
# From MPC 84024
P/2012 US27 (Siding Spring),e,39.3402,49.1773,0.8071,5.166440,0.0839299,0.64759753,252.5682,04/21.0/2021,2000,g 13.5,4.0
# From MPC 82721
P/2012 WA34 (Lemmon-PANSTARRS),e,6.0966,94.2251,354.1337,4.741796,0.0954530,0.34544178,283.4994,04/21.0/2021,2000,g 13.5,4.0
# From MPC 82721
P/2013 AL76 (Catalina),e,144.8383,145.9775,27.0992,6.497154,0.0595140,0.68621775,181.8435,04/21.0/2021,2000,g 16.0,4.0
# From MPC 91612
P/2013 G1 (Kowalski),e,5.4654,221.3877,51.4302,6.889412,0.0545043,0.51286351,146.3820,04/21.0/2021,2000,g 11.0,4.0
# From MPC 84025
P/2013 G4 (PANSTARRS),e,5.9163,339.6394,214.6892,4.439904,0.1053522,0.40952789,315.2794,04/21.0/2021,2000,g 15.0,4.0
# From MPC 91613
P/2013 J2 (McNaught),e,15.5320,289.4192,37.7487,6.223005,0.0634898,0.65761857,177.3057,04/21.0/2021,2000,g 13.0,4.0
# From MPC 86229
P/2013 N3 (PANSTARRS),e,2.1735,17.4787,323.8815,7.391214,0.0490490,0.59322825,128.5645,04/21.0/2021,2000,g 13.0,4.0
# From MPC 85834
P/2013 N5 (PANSTARRS),e,23.4336,187.1617,176.8933,6.798663,0.0555992,0.73205444,158.3998,04/21.0/2021,2000,g 17.0,4.0
# From MPC 85834
P/2013 P1 (PANSTARRS),e,18.7228,160.6035,138.1409,8.571002,0.0392787,0.60594418,116.7330,04/21.0/2021,2000,g 12.0,4.0
# From MPC 94671
P/2013 R3 (Catalina-PANSTARRS),e,0.8653,342.0008,11.1673,3.033755,0.1865234,0.27520047,161.5383,04/21.0/2021,2000,g 14.0,4.0
# From unp
P/2013 R3-A (Catalina-PANSTARRS),e,0.8647,341.9677,11.2063,3.033613,0.1865365,0.27516995,161.5725,04/21.0/2021,2000,g  9.0,4.0
# From MPEC 2015-M77
P/2013 R3-B (Catalina-PANSTARRS),e,0.8659,342.0235,11.1412,3.033831,0.1865164,0.27521549,161.5200,04/21.0/2021,2000,g  9.0,4.0
# From MPC 85835
P/2013 T1 (PANSTARRS),e,24.2840,10.0844,346.0935,5.860538,0.0694701,0.62383969,195.8084,04/21.0/2021,2000,g 16.5,4.0
# From MPC 86643
P/2013 T2 (Schwartz),e,9.4563,0.8099,345.5040,3.489992,0.1511706,0.50122429,76.6970,04/21.0/2021,2000,g 16.0,4.0
# From MPC 91613
P/2013 W1 (PANSTARRS),e,4.6955,117.8478,1.2834,3.490250,0.1511539,0.59278173,33.6631,04/21.0/2021,2000,g 17.5,4.0
# From MPC111767
C/2013 X1 (PANSTARRS),h,04/19.4382/2016,163.1943,131.5716,165.1998,1.000519,1.325146,2000,10.5,2.0
# From MPC101095
P/2013 YG46 (Spacewatch),e,7.8558,48.8553,242.5248,3.276063,0.1662171,0.45489984,256.0984,04/21.0/2021,2000,g 10.0,4.0
# From MPC 89728
P/2014 A2 (Hill),e,24.5376,106.6296,356.2121,5.926811,0.0683081,0.64533130,187.5918,04/21.0/2021,2000,g 15.0,4.0
# From MPC 92981
P/2014 A3 (PANSTARRS),e,13.6873,230.0986,213.2552,4.624889,0.0990951,0.24732936,287.9347,04/21.0/2021,2000,g 12.0,4.0
# From MPC119994
C/2014 B1 (Schwartz),e,28.4088,161.4174,345.7465,6500,0.0000019,0.99853034,0.0000,09/08.2427/2017,2000,g  4.0,4.0
# From MPC102095
P/2014 C1 (TOTAS),e,2.6877,167.7632,23.9922,3.039021,0.1860388,0.44812562,137.3840,04/21.0/2021,2000,g 15.5,4.0
# From MPC 94280
C/2014 F3 (Sheppard-Trujillo),e,6.5985,326.7443,3.5060,15.54137,0.0160868,0.63391141,359.5531,04/21.0/2021,2000,g  6.0,4.0
# From MPC 98560
P/2014 L2 (NEOWISE),e,5.1988,149.3479,182.6569,6.303706,0.0622745,0.64821021,153.6568,04/21.0/2021,2000,g 12.0,4.0
# From MPC 90769
P/2014 L3 (Hill),e,6.2772,115.4714,178.6540,8.169427,0.0422101,0.77377319,104.9065,04/21.0/2021,2000,g 16.0,4.0
# From MPC 91614
P/2014 M4 (PANSTARRS),e,3.3364,263.2566,147.9552,5.873680,0.0692371,0.59423521,159.8521,04/21.0/2021,2000,g 15.0,4.0
# From MPC103844
P/2014 MG4 (Spacewatch-PANSTARRS),e,9.3713,311.7341,299.1016,5.012055,0.0878376,0.25959010,251.5186,04/21.0/2021,2000,g  9.5,4.0
# From MPC 98560
P/2014 O3 (PANSTARRS),e,7.8057,87.6439,204.6286,7.565331,0.0473655,0.38602646,121.1160,04/21.0/2021,2000,g 10.5,4.0
# From MPEC 2020-AA5
C/2014 OE4 (PANSTARRS),h,12/12.9608/2016,81.3046,240.4199,65.8888,1.003147,6.249477,2000,11.0,2.0
# From MPC115880
C/2014 R3 (PANSTARRS),e,90.9259,334.0959,113.4385,16524,0.0000005,0.99955985,0.0000,08/08.9864/2016,2000,g  6.5,4.0
# From MPC 91615
P/2014 R5 (Lemmon-PANSTARRS),e,1.0883,126.5608,213.7320,4.056270,0.1206462,0.41366039,301.4846,04/21.0/2021,2000,g 15.0,4.0
# From MPC 91616
P/2014 U4 (PANSTARRS),e,6.4292,11.8905,347.7395,3.506006,0.1501361,0.46488680,9.9829,04/21.0/2021,2000,g 18.0,4.0
# From MPC 95211
P/2014 V1 (PANSTARRS),e,22.5209,166.2006,177.5794,5.480946,0.0768105,0.53430595,175.0596,04/21.0/2021,2000,g 14.0,4.0
# From MPC 93586
P/2014 W1 (PANSTARRS),e,8.8381,246.2454,152.2233,4.462164,0.1045649,0.38874473,258.2514,04/21.0/2021,2000,g 15.5,4.0
# From MPC105542
P/2014 W4 (PANSTARRS),e,15.2742,33.3594,67.8050,6.597562,0.0581606,0.35213039,112.7869,04/21.0/2021,2000,g 11.0,4.0
# From MPC 93587
P/2014 W12 (Gibbs),e,8.5137,299.2906,36.8761,3.520049,0.1492386,0.52425636,351.1556,04/21.0/2021,2000,g 15.0,4.0
# From MPC 94281
P/2014 X1 (Elenin),e,26.0088,61.5117,33.9580,6.209138,0.0637026,0.70860090,146.6696,04/21.0/2021,2000,g 15.0,4.0
# From MPC 92275
P/2015 A3 (PANSTARRS),e,172.5306,277.1883,249.2647,7.808619,0.0451692,0.85118061,101.8268,04/21.0/2021,2000,g 20.0,4.0
# From MPC 99270
P/2015 B1 (PANSTARRS),e,18.0335,352.9997,188.8669,9.498547,0.0336681,0.36802424,68.8621,04/21.0/2021,2000,g  8.5,4.0
# From MPC108592
C/2015 B2 (PANSTARRS),e,104.9863,341.8440,284.7239,13007,0.0000007,0.99974075,0.0000,05/05.1981/2016,2000,g  9.5,4.0
# From MPC109141
P/2015 B4 (Lemmon-PANSTARRS),e,1.7601,266.0261,227.4511,8.530280,0.0395603,0.56015119,89.7315,04/21.0/2021,2000,g 11.0,4.0
# From MPC101096
P/2015 C1 (TOTAS-Gibbs),e,13.8944,348.8157,178.2966,6.583538,0.0583465,0.56026879,127.5542,04/21.0/2021,2000,g 12.5,4.0
# From MPC119995
C/2015 D3 (PANSTARRS),h,05/02.2203/2016,128.5494,157.0644,2.9392,1.003464,8.142292,2000,5.5,4.0
# From MPC109141
P/2015 D5 (Kowalski),e,20.5034,74.0600,39.8599,8.968731,0.0366951,0.48885054,94.5903,04/21.0/2021,2000,g  9.0,4.0
# From MPC 96866
P/2015 D6 (Lemmon-PANSTARRS),e,20.2014,45.9989,125.1662,7.143960,0.0516173,0.36176190,109.4015,04/21.0/2021,2000,g 10.5,4.0
# From MPC112390
C/2015 ER61 (PANSTARRS),e,6.3349,235.1350,68.3470,504.6468,0.0000869,0.99793151,0.0000,05/10.4981/2017,2000,g 11.0,2.0
# From MPEC 2018-BF5
C/2015 E61-B (PANSTARRS),e,6.3365,235.1702,68.4362,1482,0.0000173,0.99929461,0.0000,05/10.4758/2017,2000,g 13.5,2.0
# From MPC117068
C/2015 H2 (PANSTARRS),h,09/14.1757/2016,33.6505,350.6744,288.1201,1.005660,4.980130,2000,7.5,4.0
# From MPC100280
